CCSDS_OMM_VERS = 2.0
CREATION_DATE  = 
ORIGINATOR     = 

OBJECT_NAME    = SL-16 R/B
OBJECT_ID      = 1998-043G
CENTER_NAME    = EARTH
REF_FRAME      = TEME
TIME_SYSTEM    = UTC
MEAN_ELEMENT_THEORY = SGP/SGP4

EPOCH          = 2026-02-20T21:25:00.774048
MEAN_MOTION    = 14.26045528
ECCENTRICITY   = .0010862
INCLINATION    = 98.8226
RA_OF_ASC_NODE = 5.1398
ARG_OF_PERICENTER = 65.5215
MEAN_ANOMALY   = 294.7096

EPHEMERIS_TYPE = 0
CLASSIFICATION_TYPE = U
NORAD_CAT_ID   = 25400
ELEMENT_SET_NO = 999
REV_AT_EPOCH   = 43659
BSTAR          = .44198E-4
MEAN_MOTION_DOT = .6E-6
MEAN_MOTION_DDOT = 0

CCSDS_OMM_VERS = 2.0
CREATION_DATE  = 
ORIGINATOR     = 

OBJECT_NAME    = SL-16 R/B
OBJECT_ID      = 1998-045B
CENTER_NAME    = EARTH
REF_FRAME      = TEME
TIME_SYSTEM    = UTC
MEAN_ELEMENT_THEORY = SGP/SGP4

EPOCH          = 2026-02-20T21:41:26.002752
MEAN_MOTION    = 14.16191073
ECCENTRICITY   = .0005864
INCLINATION    = 71.0097
RA_OF_ASC_NODE = 216.8725
ARG_OF_PERICENTER = 36.8598
MEAN_ANOMALY   = 323.2928

EPHEMERIS_TYPE = 0
CLASSIFICATION_TYPE = U
NORAD_CAT_ID   = 25407
ELEMENT_SET_NO = 999
REV_AT_EPOCH   = 42472
BSTAR          = .73066E-4
MEAN_MOTION_DOT = .97E-6
MEAN_MOTION_DDOT = 0

CCSDS_OMM_VERS = 2.0
CREATION_DATE  = 
ORIGINATOR     = 

OBJECT_NAME    = ISS (ZARYA)
OBJECT_ID      = 1998-067A
CENTER_NAME    = EARTH
REF_FRAME      = TEME
TIME_SYSTEM    = UTC
MEAN_ELEMENT_THEORY = SGP/SGP4

EPOCH          = 2026-02-20T19:07:45.801696
MEAN_MOTION    = 15.48167199
ECCENTRICITY   = .0008571
INCLINATION    = 51.6323
RA_OF_ASC_NODE = 155.8543
ARG_OF_PERICENTER = 116.6604
MEAN_ANOMALY   = 243.5263

EPHEMERIS_TYPE = 0
CLASSIFICATION_TYPE = U
NORAD_CAT_ID   = 25544
ELEMENT_SET_NO = 999
REV_AT_EPOCH   = 55371
BSTAR          = .1878E-3
MEAN_MOTION_DOT = .9624E-4
MEAN_MOTION_DDOT = 0

CCSDS_OMM_VERS = 2.0
CREATION_DATE  = 
ORIGINATOR     = 

OBJECT_NAME    = CZ-4B R/B
OBJECT_ID      = 1999-025C
CENTER_NAME    = EARTH
REF_FRAME      = TEME
TIME_SYSTEM    = UTC
MEAN_ELEMENT_THEORY = SGP/SGP4

EPOCH          = 2026-02-21T03:48:24.624576
MEAN_MOTION    = 14.18261805
ECCENTRICITY   = .0037644
INCLINATION    = 98.6662
RA_OF_ASC_NODE = 96.8290
ARG_OF_PERICENTER = 33.9781
MEAN_ANOMALY   = 34.9212

EPHEMERIS_TYPE = 0
CLASSIFICATION_TYPE = U
NORAD_CAT_ID   = 25732
ELEMENT_SET_NO = 999
REV_AT_EPOCH   = 38582
BSTAR          = .38089E-4
MEAN_MOTION_DOT = .36E-6
MEAN_MOTION_DDOT = 0

CCSDS_OMM_VERS = 2.0
CREATION_DATE  = 
ORIGINATOR     = 

OBJECT_NAME    = OKEAN-O
OBJECT_ID      = 1999-039A
CENTER_NAME    = EARTH
REF_FRAME      = TEME
TIME_SYSTEM    = UTC
MEAN_ELEMENT_THEORY = SGP/SGP4

EPOCH          = 2026-02-21T03:48:59.574240
MEAN_MOTION    = 14.80306435
ECCENTRICITY   = .0001647
INCLINATION    = 97.9481
RA_OF_ASC_NODE = 112.2157
ARG_OF_PERICENTER = 78.0742
MEAN_ANOMALY   = 282.0654

EPHEMERIS_TYPE = 0
CLASSIFICATION_TYPE = U
NORAD_CAT_ID   = 25860
ELEMENT_SET_NO = 999
REV_AT_EPOCH   = 43194
BSTAR          = .85959E-4
MEAN_MOTION_DOT = .603E-5
MEAN_MOTION_DDOT = 0

CCSDS_OMM_VERS = 2.0
CREATION_DATE  = 
ORIGINATOR     = 

OBJECT_NAME    = SL-16 R/B
OBJECT_ID      = 1999-039B
CENTER_NAME    = EARTH
REF_FRAME      = TEME
TIME_SYSTEM    = UTC
MEAN_ELEMENT_THEORY = SGP/SGP4

EPOCH          = 2026-02-21T03:42:27.969696
MEAN_MOTION    = 14.81706247
ECCENTRICITY   = .0013761
INCLINATION    = 98.0005
RA_OF_ASC_NODE = 111.2727
ARG_OF_PERICENTER = 314.6478
MEAN_ANOMALY   = 45.3611

EPHEMERIS_TYPE = 0
CLASSIFICATION_TYPE = U
NORAD_CAT_ID   = 25861
ELEMENT_SET_NO = 999
REV_AT_EPOCH   = 43441
BSTAR          = .69342E-4
MEAN_MOTION_DOT = .493E-5
MEAN_MOTION_DDOT = 0

CCSDS_OMM_VERS = 2.0
CREATION_DATE  = 
ORIGINATOR     = 

OBJECT_NAME    = DELTA 2 R/B
OBJECT_ID      = 1999-041E
CENTER_NAME    = EARTH
REF_FRAME      = TEME
TIME_SYSTEM    = UTC
MEAN_ELEMENT_THEORY = SGP/SGP4

EPOCH          = 2026-02-20T07:26:03.405696
MEAN_MOTION    = 14.11770959
ECCENTRICITY   = .0502219
INCLINATION    = 51.7662
RA_OF_ASC_NODE = 10.6882
ARG_OF_PERICENTER = 297.1100
MEAN_ANOMALY   = 57.9452

EPHEMERIS_TYPE = 0
CLASSIFICATION_TYPE = U
NORAD_CAT_ID   = 25876
ELEMENT_SET_NO = 999
REV_AT_EPOCH   = 36057
BSTAR          = .26091E-3
MEAN_MOTION_DOT = .1387E-4
MEAN_MOTION_DDOT = 0

CCSDS_OMM_VERS = 2.0
CREATION_DATE  = 
ORIGINATOR     = 

OBJECT_NAME    = HELIOS 1B
OBJECT_ID      = 1999-064A
CENTER_NAME    = EARTH
REF_FRAME      = TEME
TIME_SYSTEM    = UTC
MEAN_ELEMENT_THEORY = SGP/SGP4

EPOCH          = 2026-02-21T04:01:32.506176
MEAN_MOTION    = 14.87624144
ECCENTRICITY   = .0002381
INCLINATION    = 98.1713
RA_OF_ASC_NODE = 313.9244
ARG_OF_PERICENTER = 97.4692
MEAN_ANOMALY   = 262.6794

EPHEMERIS_TYPE = 0
CLASSIFICATION_TYPE = U
NORAD_CAT_ID   = 25977
ELEMENT_SET_NO = 999
REV_AT_EPOCH   = 68280
BSTAR          = .18737E-3
MEAN_MOTION_DOT = .1645E-4
MEAN_MOTION_DDOT = 0

CCSDS_OMM_VERS = 2.0
CREATION_DATE  = 
ORIGINATOR     = 

OBJECT_NAME    = TERRA
OBJECT_ID      = 1999-068A
CENTER_NAME    = EARTH
REF_FRAME      = TEME
TIME_SYSTEM    = UTC
MEAN_ELEMENT_THEORY = SGP/SGP4

EPOCH          = 2026-02-21T03:13:28.488864
MEAN_MOTION    = 14.60995248
ECCENTRICITY   = .0001519
INCLINATION    = 97.9630
RA_OF_ASC_NODE = 106.1985
ARG_OF_PERICENTER = 198.4897
MEAN_ANOMALY   = 185.6594

EPHEMERIS_TYPE = 0
CLASSIFICATION_TYPE = U
NORAD_CAT_ID   = 25994
ELEMENT_SET_NO = 999
REV_AT_EPOCH   = 39266
BSTAR          = .83615E-4
MEAN_MOTION_DOT = .366E-5
MEAN_MOTION_DDOT = 0

CCSDS_OMM_VERS = 2.0
CREATION_DATE  = 
ORIGINATOR     = 

OBJECT_NAME    = SL-16 R/B
OBJECT_ID      = 2000-006B
CENTER_NAME    = EARTH
REF_FRAME      = TEME
TIME_SYSTEM    = UTC
MEAN_ELEMENT_THEORY = SGP/SGP4

EPOCH          = 2026-02-20T15:10:22.878336
MEAN_MOTION    = 14.15818419
ECCENTRICITY   = .00178502
INCLINATION    = 71.0022
RA_OF_ASC_NODE = 133.7044
ARG_OF_PERICENTER = 213.8773
MEAN_ANOMALY   = 146.1211

EPHEMERIS_TYPE = 0
CLASSIFICATION_TYPE = U
NORAD_CAT_ID   = 26070
ELEMENT_SET_NO = 999
REV_AT_EPOCH   = 34614
BSTAR          = .4395242E-4
MEAN_MOTION_DOT = .39E-6
MEAN_MOTION_DDOT = 0

CCSDS_OMM_VERS = 2.0
CREATION_DATE  = 
ORIGINATOR     = 

OBJECT_NAME    = TITAN 4B R/B
OBJECT_ID      = 2000-047B
CENTER_NAME    = EARTH
REF_FRAME      = TEME
TIME_SYSTEM    = UTC
MEAN_ELEMENT_THEORY = SGP/SGP4

EPOCH          = 2026-02-21T03:08:45.560832
MEAN_MOTION    = 15.09401742
ECCENTRICITY   = .0037574
INCLINATION    = 67.9877
RA_OF_ASC_NODE = 87.0683
ARG_OF_PERICENTER = 55.4089
MEAN_ANOMALY   = 305.0595

EPHEMERIS_TYPE = 0
CLASSIFICATION_TYPE = U
NORAD_CAT_ID   = 26474
ELEMENT_SET_NO = 999
REV_AT_EPOCH   = 39041
BSTAR          = .18355E-3
MEAN_MOTION_DOT = .2852E-4
MEAN_MOTION_DDOT = 0

CCSDS_OMM_VERS = 2.0
CREATION_DATE  = 
ORIGINATOR     = 

OBJECT_NAME    = ENVISAT
OBJECT_ID      = 2002-009A
CENTER_NAME    = EARTH
REF_FRAME      = TEME
TIME_SYSTEM    = UTC
MEAN_ELEMENT_THEORY = SGP/SGP4

EPOCH          = 2026-02-20T20:30:27.762336
MEAN_MOTION    = 14.39030063
ECCENTRICITY   = .0001347
INCLINATION    = 98.3700
RA_OF_ASC_NODE = 5.8558
ARG_OF_PERICENTER = 87.1886
MEAN_ANOMALY   = 331.5056

EPHEMERIS_TYPE = 0
CLASSIFICATION_TYPE = U
NORAD_CAT_ID   = 27386
ELEMENT_SET_NO = 999
REV_AT_EPOCH   = 25675
BSTAR          = .48956813E-4
MEAN_MOTION_DOT = .108E-5
MEAN_MOTION_DDOT = 0

